OBJECT_NAME,OBJECT_ID,EPOCH,MEAN_MOTION,ECCENTRICITY,INCLINATION,RA_OF_ASC_NODE,ARG_OF_PERICENTER,MEAN_ANOMALY,EPHEMERIS_TYPE,CLASSIFICATION_TYPE,NORAD_CAT_ID,ELEMENT_SET_NO,REV_AT_EPOCH,BSTAR,MEAN_MOTION_DOT,MEAN_MOTION_DDOT
ALOS-2,2014-029A,2026-07-23T14:14:19.386816,14.79475321,.00016121,97.9224,301.2372,93.2925,266.8471,0,U,39766,999,65696,.19444758E-3,.1401E-4,0
KAZEOSAT 2,2014-033A,2026-07-23T14:29:58.269696,14.85507273,.00080633,97.5402,42.2899,188.7204,171.3873,0,U,40010,999,65436,.39447708E-4,.291E-5,0
HODOYOSHI-4,2014-033B,2026-07-23T14:40:57.080928,14.88206925,.0023451,97.5471,27.6797,180.7861,179.3324,0,U,40011,999,65422,.21045983E-3,.1898E-4,0
DEIMOS-2,2014-033D,2026-07-23T14:58:04.334592,14.93813881,.00015088,97.5788,77.8248,104.8464,255.2924,0,U,40013,999,64316,.88452505E-4,.884E-5,0
HODOYOSHI-3,2014-033F,2026-07-23T08:36:24.423264,14.85450267,.00315973,97.6455,5.9522,233.8359,125.9932,0,U,40015,999,65299,.12351214E-3,.1021E-4,0
SPOT 7,2014-034A,2026-07-23T14:49:00.791328,14.60987018,.00016925,98.0609,266.1670,93.7742,266.3652,0,U,40053,999,64245,.14115867E-3,.647E-5,0
SKYSAT-B,2014-037D,2026-07-23T08:50:38.839776,14.88106617,.00061288,98.3859,165.4028,148.1328,212.0259,0,U,40072,999,65134,.12604445E-3,.1098E-4,0
WORLDVIEW-3 (WV-3),2014-048A,2026-07-23T14:51:59.875200,14.85073836,.00018955,97.8550,278.9472,142.6546,217.4801,0,U,40115,999,64731,.80877466E-4,.638E-5,0
GAOFEN-2,2014-049A,2026-07-23T14:16:35.878944,14.80935744,.0008664,98.0089,268.7638,111.4138,248.8000,0,U,40118,999,64462,.11995321E-3,.875E-5,0
YAOGAN-21,2014-053A,2026-07-23T14:33:02.338848,15.26841618,.00067211,97.1460,243.2862,337.2617,22.8324,0,U,40143,999,66051,.26774049E-3,.6996E-4,0
YAOGAN-22,2014-063A,2026-07-23T09:15:48.459456,13.15531757,.00069094,100.7772,356.2677,108.4376,251.7487,0,U,40275,999,56457,.10481882E-3,-.7E-7,0
ASNARO,2014-070A,2026-07-23T15:21:08.473824,15.19473063,.00045112,97.3434,279.7711,67.7659,292.4054,0,U,40298,999,64954,.46033448E-3,.9706E-4,0
YAOGAN-24,2014-072A,2026-07-23T14:50:27.870432,14.76127948,.00152642,98.1534,342.2690,143.5681,216.6570,0,U,40310,999,62909,.18060869E-3,.1196E-4,0
CBERS 4,2014-079A,2026-07-23T15:08:05.079840,14.35518290,.00005534,98.3513,260.3149,77.8156,282.3092,0,U,40336,999,60918,.99788012E-4,.245E-5,0
YAOGAN-26,2014-088A,2026-07-23T14:09:53.896032,15.48702594,.00009853,97.0657,203.9833,255.7112,104.4030,0,U,40362,999,64333,.14409446E-3,.7627E-4,0
SMAP,2015-003A,2026-07-23T12:34:43.574880,14.63394335,.00016376,98.1288,211.1059,92.1610,267.9780,0,U,40376,999,61293,.76881439E-4,.351E-5,0
KOMPSAT-3A,2015-014A,2026-07-23T14:26:56.555808,15.55853069,.00548859,97.6899,198.6798,45.9284,314.6469,0,U,40536,999,62747,.48520468E-3,.35915E-3,0
SENTINEL-2A,2015-028A,2026-07-23T15:33:31.148352,14.30816791,.00013466,98.5669,278.9799,96.5295,263.6041,0,U,40697,999,57894,.10153101E-3,.223E-5,0
GAOFEN-8,2015-030A,2026-07-23T15:26:20.901408,15.47203307,.00096588,97.6900,40.2351,69.5931,290.6355,0,U,40701,999,61708,.5667491E-3,.28832E-3,0
CARBONITE 1 (CBNT-1),2015-032D,2026-07-23T14:26:44.526336,14.83689159,.00146369,97.6535,21.1494,168.8714,191.2827,0,U,40718,999,59474,.26683541E-3,.2158E-4,0
YAOGAN-27,2015-040A,2026-07-23T14:16:09.099264,13.16071696,.00087793,100.1183,189.4008,126.8754,233.3165,0,U,40878,999,52245,-.65111433E-3,-.29E-5,0
GAOFEN-9 01,2015-047A,2026-07-23T15:13:51.305376,14.82947512,.00278345,97.6262,238.6713,23.6757,336.5731,0,U,40894,999,58559,.11825485E-3,.915E-5,0
YAOGAN-28,2015-064A,2026-07-23T14:40:05.477664,15.27842423,.00118266,97.3112,342.1507,67.0034,293.2452,0,U,41026,999,59624,.27097749E-3,.7308E-4,0
YAOGAN-29,2015-069A,2026-07-23T14:38:44.083680,14.83109926,.00000526,98.0025,233.2984,121.2975,238.8244,0,U,41038,999,57602,-.2378145E-5,-.73E-6,0
KENT RIDGE 1,2015-077B,2026-07-23T15:16:41.673216,15.23320367,.00082698,14.9811,354.8725,33.6031,326.4815,0,U,41167,999,58666,.13528353E-3,.4076E-4,0
GAOFEN-4,2015-083A,2026-07-21T14:23:34.672704,1.00270335,.00041624,0.4439,83.8614,121.1097,55.9718,0,U,41194,999,3887,0,-.333E-5,0
JASON-3,2016-002A,2026-07-23T14:02:47.488704,12.87629004,.00081191,66.0415,49.3119,270.0660,89.9428,0,U,41240,999,49193,.7121336E-4,-.44E-6,0
SENTINEL-3A,2016-011A,2026-07-23T14:44:04.784928,14.26736152,.00012903,98.6231,271.4708,86.8631,273.2698,0,U,41335,999,54325,.74789523E-4,.137E-5,0
ZIYUAN 3-02 (ZY 3-02),2016-033A,2026-07-23T15:05:05.087040,15.21165215,.00136097,97.3822,279.7009,158.8968,201.2832,0,U,41556,999,56352,.26837556E-3,.5926E-4,0
CARTOSAT-2C,2016-040A,2026-07-23T11:35:57.588288,15.19310130,.00086862,97.4464,263.9576,19.1280,341.0279,0,U,41599,999,55922,.19303545E-3,.401E-4,0
