ALOS-2                  
1 39766U 14029A   26204.59327994  .00001401  00000+0  19445-3 0  9990
2 39766  97.9224 301.2372 0001612  93.2925 266.8471 14.79475321656963
KAZEOSAT 2              
1 40010U 14033A   26204.60414664  .00000291  00000+0  39448-4 0  9994
2 40010  97.5402  42.2899 0008063 188.7204 171.3873 14.85507273654361
HODOYOSHI-4             
1 40011U 14033B   26204.61177177  .00001898  00000+0  21046-3 0  9999
2 40011  97.5471  27.6797 0023451 180.7861 179.3324 14.88206925654228
DEIMOS-2                
1 40013U 14033D   26204.62366128  .00000884  00000+0  88453-4 0  9998
2 40013  97.5788  77.8248 0001508 104.8464 255.2924 14.93813881643166
HODOYOSHI-3             
1 40015U 14033F   26204.35861601  .00001021  00000+0  12351-3 0  9993
2 40015  97.6455   5.9522 0031597 233.8359 125.9932 14.85450267652993
SPOT 7                  
1 40053U 14034A   26204.61737027  .00000647  00000+0  14116-3 0  9993
2 40053  98.0609 266.1670 0001692  93.7742 266.3652 14.60987018642459
SKYSAT-B                
1 40072U 14037D   26204.36850509  .00001098  00000+0  12604-3 0  9991
2 40072  98.3859 165.4028 0006128 148.1328 212.0259 14.88106617651349
WORLDVIEW-3 (WV-3)      
1 40115U 14048A   26204.61944300  .00000638  00000+0  80877-4 0  9999
2 40115  97.8550 278.9472 0001895 142.6546 217.4801 14.85073836647316
GAOFEN-2                
1 40118U 14049A   26204.59485971  .00000875  00000+0  11995-3 0  9991
2 40118  98.0089 268.7638 0008664 111.4138 248.8000 14.80935744644622
YAOGAN-21               
1 40143U 14053A   26204.60627707  .00006996  00000+0  26774-3 0  9992
2 40143  97.1460 243.2862 0006721 337.2617  22.8324 15.26841618660514
YAOGAN-22               
1 40275U 14063A   26204.38597754 -.00000007  00000+0  10482-3 0  9999
2 40275 100.7772 356.2677 0006909 108.4376 251.7487 13.15531757564572
ASNARO                  
1 40298U 14070A   26204.63968141  .00009706  00000+0  46033-3 0  9997
2 40298  97.3434 279.7711 0004511  67.7659 292.4054 15.19473063649543
YAOGAN-24               
1 40310U 14072A   26204.61837813  .00001196  00000+0  18061-3 0  9998
2 40310  98.1534 342.2690 0015264 143.5681 216.6570 14.76127948629094
CBERS 4                 
1 40336U 14079A   26204.63061435  .00000245  00000+0  99788-4 0  9994
2 40336  98.3513 260.3149 0000553  77.8156 282.3092 14.35518290609187
YAOGAN-26               
1 40362U 14088A   26204.59020713  .00007627  00000+0  14409-3 0  9999
2 40362  97.0657 203.9833 0000985 255.7112 104.4030 15.48702594643330
SMAP                    
1 40376U 15003A   26204.52411545  .00000351  00000+0  76881-4 0  9992
2 40376  98.1288 211.1059 0001637  92.1610 267.9780 14.63394335612934
KOMPSAT-3A              
1 40536U 15014A   26204.60204347  .00035915  00000+0  48520-3 0  9993
2 40536  97.6899 198.6798 0054885  45.9284 314.6469 15.55853069627474
SENTINEL-2A             
1 40697U 15028A   26204.64827718  .00000223  00000+0  10153-3 0  9998
2 40697  98.5669 278.9799 0001346  96.5295 263.6041 14.30816791578947
GAOFEN-8                
1 40701U 15030A   26204.64329747  .00028832  00000+0  56675-3 0  9991
2 40701  97.6900  40.2351 0009658  69.5931 290.6355 15.47203307617085
CARBONITE 1 (CBNT-1)    
1 40718U 15032D   26204.60190424  .00002158  00000+0  26684-3 0  9995
2 40718  97.6535  21.1494 0014636 168.8714 191.2827 14.83689159594746
YAOGAN-27               
1 40878U 15040A   26204.59454976 -.00000290  00000+0 -65111-3 0  9999
2 40878 100.1183 189.4008 0008779 126.8754 233.3165 13.16071696522458
GAOFEN-9 01             
1 40894U 15047A   26204.63462159  .00000915  00000+0  11825-3 0  9996
2 40894  97.6262 238.6713 0027834  23.6757 336.5731 14.82947512585596
YAOGAN-28               
1 41026U 15064A   26204.61117451  .00007308  00000+0  27098-3 0  9995
2 41026  97.3112 342.1507 0011826  67.0034 293.2452 15.27842423596249
YAOGAN-29               
1 41038U 15069A   26204.61023245 -.00000073  00000+0 -23781-5 0  9991
2 41038  98.0025 233.2984 0000052 121.2975 238.8244 14.83109926576021
KENT RIDGE 1            
1 41167U 15077B   26204.63659344  .00004076  00000+0  13528-3 0  9991
2 41167  14.9811 354.8725 0008269  33.6031 326.4815 15.23320367586662
GAOFEN-4                
1 41194U 15083A   26202.59970686 -.00000333  00000+0  00000+0 0  9996
2 41194   0.4439  83.8614 0004162 121.1097  55.9718  1.00270335 38877
JASON-3                 
1 41240U 16002A   26204.58527186 -.00000044  00000+0  71213-4 0  9992
2 41240  66.0415  49.3119 0008119 270.0660  89.9428 12.87629004491937
SENTINEL-3A             
1 41335U 16011A   26204.61394427  .00000137  00000+0  74790-4 0  9996
2 41335  98.6231 271.4708 0001290  86.8631 273.2698 14.26736152543253
ZIYUAN 3-02 (ZY 3-02)   
1 41556U 16033A   26204.62853110  .00005926  00000+0  26838-3 0  9995
2 41556  97.3822 279.7009 0013609 158.8968 201.2832 15.21165215563520
CARTOSAT-2C             
1 41599U 16040A   26204.48330542  .00004010  00000+0  19304-3 0  9996
2 41599  97.4464 263.9576 0008686  19.1280 341.0279 15.19310130559224
